159P/LONEOS,e,23.4609,55.0090,4.6387,5.857166,0.0695301,0.38144029,50.3350,05/15.0/2020,2000,g 10.0,4.0
# From MPEC 2019-TG9
160P/LINEAR,e,15.6157,333.3673,12.6543,3.771830,0.1345476,0.52612358,22.1610,05/15.0/2020,2000,g 15.5,2.0
# From MPC 75721
161P/Hartley-IRAS,e,95.7351,1.4549,46.9166,7.727350,0.0458837,0.83451165,250.3797,05/15.0/2020,2000,g  8.5,6.0
# From MPEC 2020-HN5
162P/Siding Spring,e,27.5549,30.9252,357.1123,3.091321,0.1813376,0.58297699,322.4990,05/15.0/2020,2000,g 12.0,4.0
# From MPEC 2020-HN5
163P/NEAT,e,12.7079,102.0919,349.6739,3.769995,0.1346459,0.45187351,38.2166,05/15.0/2020,2000,g 14.5,4.0
# From MPC106349
164P/Christensen,e,16.2533,88.3056,325.8632,3.658425,0.1408520,0.53964435,100.6712,05/15.0/2020,2000,g 11.0,4.0
# From MPC 75721
165P/LINEAR,e,15.8995,0.7478,126.2367,17.90459,0.0130094,0.61477656,94.9709,05/15.0/2020,2000,g 11.5,2.0
# From MPC 75722
166P/NEAT,e,15.3612,64.5053,321.4600,13.83357,0.0191559,0.38195128,126.1435,05/15.0/2020,2000,g  5.5,4.0
# From MPC 75722
167P/CINEOS,e,19.1213,295.6538,344.1447,16.18500,0.0151368,0.27307497,105.1991,05/15.0/2020,2000,g  9.5,2.0
# From MPC102101
168P/Hergenrother,e,21.6124,355.4643,14.9914,3.581899,0.1453898,0.62066221,41.2668,05/15.0/2020,2000,g 15.5,4.0
# From MPEC 2015-M77
169P/NEAT,e,11.2955,176.0882,218.0701,2.601454,0.2348982,0.76795003,175.3731,05/15.0/2020,2000,g  9.0,4.0
# From MPC 89012
170P/Christensen,e,10.1250,142.9203,225.6471,4.198217,0.1145794,0.30338418,237.1886,05/15.0/2020,2000,g 12.0,4.0
# From MPC102102
171P/Spahr,e,21.9337,101.6971,347.1215,3.556662,0.1469400,0.50168612,71.6185,05/15.0/2020,2000,g 13.5,4.0
# From MPEC 2019-VB6
172P/Yeung,e,11.2333,30.8968,209.3683,4.210397,0.1140826,0.20618301,132.1281,05/15.0/2020,2000,g 13.0,4.0
# From MPEC 2020-HN5
173P/Mueller,e,16.4973,100.4007,29.3632,5.700591,0.0724143,0.26051704,317.8450,05/15.0/2020,2000,g  7.5,4.0
# From MPC 92985
174P/Echeclus,e,4.3431,173.2655,162.9072,10.70252,0.0281498,0.45703505,52.0469,05/15.0/2020,2000,g  9.4,2.0
# From MPC114608
175P/Hergenrother,e,6.0775,123.5288,56.2379,3.428958,0.1552247,0.43230759,35.2522,05/15.0/2020,2000,g 14.0,4.0
# From MPC 89015
176P/LINEAR,e,0.2348,345.8859,35.1460,3.193165,0.1727317,0.19295590,200.5473,05/15.0/2020,2000,g 15.1,2.0
# From MPC 75723
177P/Barnard,e,31.3361,272.3559,60.1571,24.37748,0.0081888,0.95509428,41.0046,05/15.0/2020,2000,g 15.0,4.0
# From MPC105242
178P/Hug-Bell,e,11.0897,102.8743,297.7846,3.630049,0.1425067,0.48174984,351.0779,05/15.0/2020,2000,g 13.5,4.0
# From MPC 75723
179P/Jedicke,e,19.8988,115.5255,296.4906,5.943279,0.0680244,0.30612387,309.4905,05/15.0/2020,2000,g  2.5,8.0
# From MPC100284
180P/NEAT,e,16.8683,84.5564,94.8977,3.861014,0.1299128,0.35338317,210.1084,05/15.0/2020,2000,g 11.0,4.0
# From MPC 89012
181P/Shoemaker-Levy,e,17.4855,35.4114,336.2547,3.870867,0.1294171,0.70034508,281.8439,05/15.0/2020,2000,g 11.5,4.0
# From MPEC 2014-J10
182P/LONEOS,e,16.2363,72.7304,53.8168,2.956470,0.1938849,0.66152640,218.8428,05/15.0/2020,2000,g 18.0,4.0
# From MPC110085
183P/Korlevic-Juric,e,18.6773,5.3681,163.7833,4.517952,0.1026341,0.13975349,92.4525,05/15.0/2020,2000,g 12.5,2.0
# From MPC105242
184P/Lovas,e,4.5726,173.2646,186.4213,3.795246,0.1333043,0.55122479,338.1156,05/15.0/2020,2000,g 13.5,4.0
# From MPC109593
185P/Petriew,e,13.9971,214.0961,181.8862,3.099611,0.1806106,0.69886767,151.4456,05/15.0/2020,2000,g 15.0,4.0
# From MPC100284
186P/Garradd,e,28.5037,326.8180,283.9783,5.012598,0.0878233,0.12441431,33.0524,05/15.0/2020,2000,g  7.5,4.0
# From MPC104795
187P/LINEAR,e,13.6348,109.9237,132.2421,4.574230,0.1007458,0.15247686,73.2899,05/15.0/2020,2000,g  9.0,4.0
# From MPC106349
188P/LINEAR-Mueller,e,10.5191,358.9560,26.5956,4.376531,0.1076488,0.41513592,127.3678,05/15.0/2020,2000,g 11.5,4.0
# From MPC106349
189P/NEAT,e,20.0742,281.7412,16.2504,2.947309,0.1947896,0.58870645,197.2273,05/15.0/2020,2000,g 19.0,4.0
# From MPC 75724
190P/Mueller,e,2.1740,335.5738,50.2859,4.236038,0.1130484,0.52070269,169.4221,05/15.0/2020,2000,g 13.0,4.0
# From MPC 92277
191P/McNaught,e,8.8443,98.2412,283.9043,3.639824,0.1419331,0.38665279,316.1752,05/15.0/2020,2000,g 13.0,4.0
# From MPC 75724
192P/Shoemaker-Levy,e,24.5323,51.6462,312.8998,6.478809,0.0597670,0.77272986,272.0769,05/15.0/2020,2000,g 15.0,4.0
# From MPC 92277
193P/LINEAR-NEAT,e,10.6868,335.1920,8.2571,3.575528,0.1457786,0.39401493,291.8113,05/15.0/2020,2000,g 14.0,4.0
# From MPC 98566
194P/LINEAR,e,11.1759,351.6126,130.7494,3.986673,0.1238192,0.57763856,190.0546,05/15.0/2020,2000,g 16.0,4.0
# From MPC 75724
195P/Hill,e,36.3413,243.0980,249.4867,6.497959,0.0595030,0.31329527,246.8201,05/15.0/2020,2000,g  8.5,4.0
# From MPC 92985
196P/Tichy,e,19.3018,24.2078,12.3230,3.797614,0.1331796,0.42864197,240.3626,05/15.0/2020,2000,g 13.5,4.0
# From MPC 94676
197P/LINEAR,e,25.5494,66.3945,188.7334,2.867238,0.2030058,0.62993292,169.9357,05/15.0/2020,2000,g 16.5,2.0
# From NK 1596
198P/ODAS,e,1.3386,358.2501,69.2648,3.600708,0.1442521,0.44310873,74.7525,05/15.0/2020,2000,g  9.0,4.0
# From MPC 75725
199P/Shoemaker,e,24.9356,92.3999,191.5660,5.898736,0.0687964,0.50606679,278.8544,05/15.0/2020,2000,g 10.0,4.0
# From MPC118098
200P/Larsen,e,12.1044,234.8037,134.0034,4.937017,0.0898477,0.33212792,26.1752,05/15.0/2020,2000,g  9.0,4.0
# From MPC 93588
201P/LONEOS,e,5.7365,19.9632,41.2470,3.360802,0.1599704,0.63774051,299.7899,05/15.0/2020,2000,g 14.0,4.0
# From MPC103849
202P/Scotti,e,2.0267,182.3706,274.6611,3.984618,0.1239151,0.28771717,180.4656,05/15.0/2020,2000,g 13.5,4.0
# From MPEC 2019-TG9
203P/Korlevic,e,2.9733,290.3488,154.8697,4.671059,0.0976295,0.31498132,6.9313,05/15.0/2020,2000,g 14.5,2.0
# From MPC 98566
204P/LINEAR-NEAT,e,6.6383,108.8406,354.9111,3.629449,0.1425420,0.48137311,229.1858,05/15.0/2020,2000,g 14.0,4.0
# From MPC 98566
205P/Giacobini,e,15.3006,179.5992,154.1827,3.543059,0.1477871,0.56779613,270.0694,05/15.0/2020,2000,g 13.0,4.0
# From MPC 75725
206P/Barnard-Boattini,e,33.6310,202.3727,189.4335,3.488535,0.1512654,0.55144654,315.6091,05/15.0/2020,2000,g 19.0,4.0
# From MPC 75725
207P/NEAT,e,10.1500,199.6497,271.9107,3.865097,0.1297070,0.76010423,183.5852,05/15.0/2020,2000,g 16.0,4.0
# From MPC101100
208P/McMillan,e,4.4089,36.3686,310.3854,4.047454,0.1210406,0.37322532,170.9673,05/15.0/2020,2000,g 12.5,4.0
# From MPC 90771
209P/LINEAR,e,21.2582,62.7665,152.4860,2.960457,0.1934933,0.67325004,65.2491,05/15.0/2020,2000,g 17.0,2.0
# From MPC105242
210P/Christensen,e,10.2619,93.8354,345.9090,3.165929,0.1749654,0.83322696,6.4871,05/15.0/2020,2000,g 13.5,4.0
# From MPC 96868
211P/Hill,e,18.9215,117.1385,4.1326,3.549016,0.1474151,0.34238837,231.2881,05/15.0/2020,2000,g 12.5,4.0
# From MPC104795
212P/NEAT,e,22.6321,98.6877,14.2844,3.882202,0.1288507,0.58892404,173.0365,05/15.0/2020,2000,g 17.0,2.0
# From MPC114608
213P/Van Ness,e,10.3821,311.3002,5.5993,3.348291,0.1608679,0.40806095,154.9332,05/15.0/2020,2000,g 10.5,4.0
# From MPC 92986
214P/LINEAR,e,15.1866,348.2628,190.2889,3.615812,0.1433492,0.48602962,236.0970,05/15.0/2020,2000,g 13.0,4.0
# From MPC118098
215P/NEAT,e,10.5814,56.6841,262.0626,4.327979,0.1094653,0.16709221,19.5733,05/15.0/2020,2000,g 11.0,4.0
# From MPC100284
216P/LINEAR,e,9.0510,359.8205,151.3761,3.870201,0.1294505,0.44550694,187.2152,05/15.0/2020,2000,g 13.0,4.0
# From MPC108598
217P/LINEAR,e,12.8639,125.4751,246.8521,3.951956,0.1254544,0.68819180,129.6224,05/15.0/2020,2000,g 12.0,4.0
# From MPC105242
218P/LINEAR,e,2.7254,175.9765,59.7788,3.094334,0.1810729,0.62190643,334.3292,05/15.0/2020,2000,g 16.0,4.0
# From MPC100284
219P/LINEAR,e,11.5291,231.0016,107.3525,3.651133,0.1412741,0.35347645,166.5233,05/15.0/2020,2000,g 11.0,4.0
# From MPEC 2020-HN5
220P/McNaught,e,8.1279,150.1094,180.5550,3.115659,0.1792170,0.50183182,322.4224,05/15.0/2020,2000,g 15.0,4.0
# From MPC 93589
221P/LINEAR,e,11.4261,229.7261,40.0333,3.457966,0.1532756,0.49283404,270.8062,05/15.0/2020,2000,g 14.5,4.0
# From MPC 92277
222P/LINEAR,e,5.0947,6.7992,346.2265,2.899364,0.1996411,0.71437365,68.8607,05/15.0/2020,2000,g 20.0,4.0
# From MPEC 2020-HN5
223P/Skiff,e,27.0159,346.7770,37.8228,4.159156,0.1161974,0.41564486,55.0459,05/15.0/2020,2000,g 12.0,4.0
# From MPC 75727
224P/LINEAR-NEAT,e,13.3277,40.3673,16.8070,3.436606,0.1547068,0.40872252,225.7568,05/15.0/2020,2000,g 15.5,4.0
# From MPC 75727
225P/LINEAR,e,21.3472,14.1829,3.8687,3.651207,0.1412698,0.63755613,193.1897,05/15.0/2020,2000,g 18.0,4.0
# From MPC106349
226P/Pigott-LINEAR-Kowalski,e,44.0060,54.0056,341.0562,3.767996,0.1347530,0.52814585,181.8063,05/15.0/2020,2000,g 12.5,4.0
# From MPC102956
227P/Catalina-LINEAR,e,6.5098,49.4802,90.0996,3.571311,0.1460369,0.50534386,154.2681,05/15.0/2020,2000,g 16.5,2.0
# From MPEC 2020-HN5
228P/LINEAR,e,7.9098,30.9865,115.2975,4.173941,0.1155805,0.17683485,7.5526,05/15.0/2020,2000,g 14.5,2.0
# From MPC106349
229P/Gibbs,e,26.0843,157.8978,223.9872,3.931681,0.1264261,0.37643398,137.8559,05/15.0/2020,2000,g 13.0,4.0
# From MPC110497
230P/LINEAR,e,15.5177,107.0189,313.7337,3.445728,0.1540929,0.54943103,256.4849,05/15.0/2020,2000,g 13.0,4.0
# From MPC114608
231P/LINEAR-NEAT,e,12.3342,133.0252,42.8524,4.018151,0.1223671,0.24763061,41.0291,05/15.0/2020,2000,g 14.5,2.0
# From MPC112394
232P/Hill,e,14.6308,56.0222,53.4976,4.482948,0.1038385,0.33432426,42.0240,05/15.0/2020,2000,g 11.5,4.0
# From MPC 92986
233P/La Sagra,e,11.2841,74.9270,27.0701,3.030297,0.1868428,0.41173734,333.8987,05/15.0/2020,2000,g 15.0,4.0
# From MPC110497
234P/LINEAR,e,11.5238,179.5696,357.4005,3.803227,0.1328849,0.25405372,143.7187,05/15.0/2020,2000,g 12.0,4.0
# From MPC110497
235P/LINEAR,e,8.8851,203.9461,333.5445,3.984844,0.1239045,0.31931847,97.9211,05/15.0/2020,2000,g 12.0,4.0
# From MPC107688
236P/LINEAR,e,16.3337,245.6576,119.1981,3.731429,0.1367387,0.50837660,123.9724,05/15.0/2020,2000,g 14.0,4.0
# From MPC109593
237P/LINEAR,e,14.0216,245.4171,25.1674,3.512404,0.1497260,0.43474999,196.2104,05/15.0/2020,2000,g 14.5,2.0
# From MPC107688
